NORAD_CAT_ID,OBJECT_NAME,OBJECT_TYPE,EPOCH,MEAN_MOTION,ECCENTRICITY,INCLINATION,RA_OF_ASC_NODE,ARG_OF_PERICENTER,MEAN_ANOMALY,BSTAR,MEAN_MOTION_DOT,MEAN_MOTION_DDOT,TLE_LINE0,TLE_LINE1,TLE_LINE2,SEMIMAJOR_AXIS,PERIOD,APOGEE,PERIGEE,DECAYED
52276.0,STARLINK-3778,PAYLOAD,2023-08-08 21:11:23,15.0887913,0.0001164,53.2176,26.0319,52.1374,307.9724,0.0010835,0.00017016,0.0,0 STARLINK-3778,1 52276U 22041R   23220.88290698  .00017016  00000-0  10835-2 0  9994,2 52276  53.2176  26.0319 0001164  52.1374 307.9724 15.08879130 73108,6917.761,95.435,540.431,538.821,0.0
52276.0,STARLINK-3778,PAYLOAD,2023-08-09 11:29:51,15.08858766,0.0002067,53.2175,23.3561,73.2358,286.8861,0.00029515,4.415e-05,0.0,0 STARLINK-3778,1 52276U 22041R   23221.47906670  .00004415  00000-0  29515-3 0  9999,2 52276  53.2175  23.3561 0002067  73.2358 286.8861 15.08858766 73193,6917.823,95.436,541.118,538.258,0.0
52276.0,STARLINK-3778,PAYLOAD,2023-08-09 17:51:23,15.08851426,9.68e-05,53.2179,22.1671,57.3641,302.7445,0.00025597,3.79e-05,0.0,0 STARLINK-3778,1 52276U 22041R   23221.74402592  .00003790  00000-0  25597-3 0  9994,2 52276  53.2179  22.1671 0000968  57.3641 302.7445 15.08851426 73239,6917.845,95.437,540.38,539.041,0.0
52276.0,STARLINK-3778,PAYLOAD,2023-08-10 11:20:38,15.08839868,9.8e-05,53.2181,18.8973,66.9099,293.1996,0.00021221,3.091e-05,0.0,0 STARLINK-3778,1 52276U 22041R   23222.47266862  .00003091  00000-0  21221-3 0  9997,2 52276  53.2181  18.8973 0000980  66.9099 293.1996 15.08839868 73348,6917.881,95.438,540.424,539.068,0.0
52276.0,STARLINK-3778,PAYLOAD,2023-08-10 20:52:57,15.0885266,9.52e-05,53.2164,17.1106,58.1171,301.9914,0.00063792,9.883e-05,0.0,0 STARLINK-3778,1 52276U 22041R   23222.87010517  .00009883  00000-0  63792-3 0  9999,2 52276  53.2164  17.1106 0000952  58.1171 301.9914 15.08852660 73402,6917.842,95.437,540.365,539.048,0.0
52276.0,STARLINK-3778,PAYLOAD,2023-08-11 09:36:02,15.08837321,8.06e-05,53.2177,14.7335,73.2614,286.8467,1.1183e-05,-1.1e-06,0.0,0 STARLINK-3778,1 52276U 22041R   23223.40002849 -.00000110  00000-0  11183-4 0  9991,2 52276  53.2177  14.7335 0000806  73.2614 286.8467 15.08837321 73480,6917.889,95.438,540.311,539.196,0.0
52276.0,STARLINK-3778,PAYLOAD,2023-08-11 19:08:21,15.0884897,9.65e-05,53.2178,12.9492,75.3366,284.7733,0.00029135,4.353e-05,0.0,0 STARLINK-3778,1 52276U 22041R   23223.79746572  .00004353  00000-0  29135-3 0  9998,2 52276  53.2178  12.9492 0000965  75.3366 284.7733 15.08848970 73540,6917.853,95.437,540.386,539.05,0.0
52276.0,STARLINK-3778,PAYLOAD,2023-08-12 11:02:12,15.08842674,0.0001096,53.2171,9.975,79.5243,280.5872,0.00013657,1.887e-05,0.0,0 STARLINK-3778,1 52276U 22041R   23224.45986925  .00001887  00000-0  13657-3 0  9991,2 52276  53.2171   9.9750 0001096  79.5243 280.5872 15.08842674 73646,6917.872,95.437,540.495,538.979,0.0
52276.0,STARLINK-3778,PAYLOAD,2023-08-13 09:17:36,15.08837927,0.0001024,53.2163,5.8121,77.3833,282.7273,0.0001124,1.501e-05,0.0,0 STARLINK-3778,1 52276U 22041R   23225.38723198  .00001501  00000-0  11240-3 0  9994,2 52276  53.2163   5.8121 0001024  77.3833 282.7273 15.08837927 73785,6917.887,95.438,540.46,539.043,0.0
52276.0,STARLINK-3778,PAYLOAD,2023-08-14 17:05:19,15.08842898,0.0001296,53.2151,359.8626,101.8475,258.2663,0.0001195,1.615e-05,0.0,0 STARLINK-3778,1 52276U 22041R   23226.71203156  .00001615  00000-0  11950-3 0  9993,2 52276  53.2151 359.8626 0001296 101.8475 258.2663 15.08842898 73986,6917.872,95.437,540.633,538.84,0.0
52276.0,STARLINK-3778,PAYLOAD,2023-08-15 18:31:29,15.08846739,0.0001254,53.2163,355.1065,84.43,275.6835,0.00015927,2.248e-05,0.0,0 STARLINK-3778,1 52276U 22041R   23227.77186999  .00002248  00000-0  15927-3 0  9996,2 52276  53.2163 355.1065 0001254  84.4300 275.6835 15.08846739 74143,6917.86,95.437,540.592,538.857,0.0
52276.0,STARLINK-3778,PAYLOAD,2023-08-16 08:49:58,15.08839302,0.0001503,53.2148,352.4287,99.9908,260.1254,7.1076e-05,8.43e-06,0.0,0 STARLINK-3778,1 52276U 22041R   23228.36803383  .00000843  00000-0  71076-4 0  9992,2 52276  53.2148 352.4287 0001503  99.9908 260.1254 15.08839302 74236,6917.883,95.438,540.787,538.708,0.0
52276.0,STARLINK-3778,PAYLOAD,2023-08-17 08:40:44,15.0885534,0.000118,53.2178,347.9702,101.8754,258.237,-0.00038911,-6.478e-05,0.0,0 STARLINK-3778,1 52276U 22041R   23229.36162615 -.00006478  00000-0 -38911-3 0  9991,2 52276  53.2178 347.9702 0001180 101.8754 258.2370 15.08855340 74386,6917.834,95.437,540.515,538.882,0.0
52276.0,STARLINK-3778,PAYLOAD,2023-08-18 00:34:36,15.08841574,0.0001264,53.2184,344.9973,98.3986,261.715,0.00015953,2.252e-05,0.0,0 STARLINK-3778,1 52276U 22041R   23230.02403272  .00002252  00000-0  15953-3 0  9998,2 52276  53.2184 344.9973 0001264  98.3986 261.7150 15.08841574 74480,6917.876,95.437,540.615,538.866,0.0
52276.0,STARLINK-3778,PAYLOAD,2023-08-18 08:31:32,15.08832929,0.0001398,53.2208,343.5118,107.9422,252.1723,1.0493e-05,-1.21e-06,0.0,0 STARLINK-3778,1 52276U 22041R   23230.35523780 -.00000121  00000-0  10493-4 0  9990,2 52276  53.2208 343.5118 0001398 107.9422 252.1723 15.08832929 74533,6917.902,95.438,540.734,538.8,0.0
52276.0,STARLINK-3778,PAYLOAD,2023-08-18 18:03:50,15.08844836,0.0001197,53.219,341.7271,101.3081,258.8046,0.00016458,2.333e-05,0.0,0 STARLINK-3778,1 52276U 22041R   23230.75267203  .00002333  00000-0  16458-3 0  9991,2 52276  53.2190 341.7271 0001197 101.3081 258.8046 15.08844836 74596,6917.866,95.437,540.559,538.903,0.0
52276.0,STARLINK-3778,PAYLOAD,2023-08-19 00:25:23,15.08836908,0.000118,53.2162,340.5355,96.6167,263.4959,4.5904e-05,4.43e-06,0.0,0 STARLINK-3778,1 52276U 22041R   23231.01763644  .00000443  00000-0  45904-4 0  9990,2 52276  53.2162 340.5355 0001180  96.6167 263.4959 15.08836908 74639,6917.89,95.438,540.571,538.939,0.0
52276.0,STARLINK-3778,PAYLOAD,2023-08-19 11:33:05,15.08844946,0.0001216,53.2174,338.4549,100.1611,259.9519,0.00011672,1.57e-05,0.0,0 STARLINK-3778,1 52276U 22041R   23231.48131276  .00001570  00000-0  11672-3 0  9997,2 52276  53.2174 338.4549 0001216 100.1611 259.9519 15.08844946 74709,6917.865,95.437,540.571,538.889,0.0
52276.0,STARLINK-3778,PAYLOAD,2023-08-20 06:37:43,15.08836729,0.0001057,53.2211,334.8902,106.3326,253.7782,8.5892e-05,1.079e-05,0.0,0 STARLINK-3778,1 52276U 22041R   23232.27619798  .00001079  00000-0  85892-4 0  9995,2 52276  53.2211 334.8902 0001057 106.3326 253.7782 15.08836729 74825,6917.89,95.438,540.487,539.024,0.0
52276.0,STARLINK-3778,PAYLOAD,2023-08-21 00:07:00,15.08812654,0.0001279,53.2186,331.6154,94.5935,265.5203,-0.00013442,-2.425e-05,0.0,0 STARLINK-3778,1 52276U 22041R   23233.00486683 -.00002425  00000-0 -13442-3 0  9991,2 52276  53.2186 331.6154 0001279  94.5935 265.5203 15.08812654 74932,6917.964,95.439,540.714,538.944,0.0
52276.0,STARLINK-3778,PAYLOAD,2023-08-21 12:50:03,15.088444,0.0001401,53.2199,329.2387,122.8362,237.2765,0.00011554,1.552e-05,0.0,0 STARLINK-3778,1 52276U 22041R   23233.53476669  .00001552  00000-0  11554-3 0  9992,2 52276  53.2199 329.2387 0001401 122.8362 237.2765 15.08844400 75016,6917.867,95.437,540.701,538.763,0.0
52276.0,STARLINK-3778,PAYLOAD,2023-08-22 14:16:13,15.08857839,0.0001256,53.2186,324.4801,91.7939,268.3197,0.00029966,4.487e-05,0.0,0 STARLINK-3778,1 52276U 22041R   23234.59459639  .00004487  00000-0  29966-3 0  9993,2 52276  53.2186 324.4801 0001256  91.7939 268.3197 15.08857839 75173,6917.826,95.436,540.56,538.822,0.0
52276.0,STARLINK-3778,PAYLOAD,2023-08-23 12:31:37,15.08855868,0.0001296,53.2178,320.3188,84.1029,276.0111,9.5358e-05,1.231e-05,0.0,0 STARLINK-3778,1 52276U 22041R   23235.52196498  .00001231  00000-0  95358-4 0  9991,2 52276  53.2178 320.3188 0001296  84.1029 276.0111 15.08855868 75315,6917.832,95.437,540.593,538.8,0.0
52276.0,STARLINK-3778,PAYLOAD,2023-08-24 10:47:02,15.08844926,0.0001534,53.2197,316.1552,106.3334,253.7827,-0.00010508,-1.96e-05,0.0,0 STARLINK-3778,1 52276U 22041R   23236.44933003 -.00001960  00000-0 -10508-3 0  9998,2 52276  53.2197 316.1552 0001534 106.3334 253.7827 15.08844926 74234,6917.865,95.437,540.792,538.669,0.0
52276.0,STARLINK-3778,PAYLOAD,2023-08-25 10:37:50,15.08839485,0.0001332,53.2181,311.6886,93.8303,266.2842,-2.0767e-05,-6.18e-06,0.0,0 STARLINK-3778,1 52276U 22041R   23237.44294000 -.00000618  00000-0 -20767-4 0  9994,2 52276  53.2181 311.6886 0001332  93.8303 266.2842 15.08839485 75601,6917.882,95.438,540.668,538.826,0.0
52276.0,STARLINK-3778,PAYLOAD,2023-08-26 10:28:35,15.08849904,0.0001324,53.2183,307.2334,99.0009,261.1133,0.00023623,3.475e-05,0.0,0 STARLINK-3778,1 52276U 22041R   23238.43652756  .00003475  00000-0  23623-3 0  9995,2 52276  53.2183 307.2334 0001324  99.0009 261.1133 15.08849904 75754,6917.85,95.437,540.631,538.799,0.0
52276.0,STARLINK-3778,PAYLOAD,2023-08-26 12:03:58,15.08853132,0.0001259,53.2179,306.9364,86.2208,273.8928,0.00027717,4.128e-05,0.0,0 STARLINK-3778,1 52276U 22041R   23238.50276515  .00004128  00000-0  27717-3 0  9992,2 52276  53.2179 306.9364 0001259  86.2208 273.8928 15.08853132 74540,6917.84,95.437,540.576,538.834,0.0
52276.0,STARLINK-3778,PAYLOAD,2023-08-27 03:57:51,15.08831835,0.0001549,53.2189,303.9648,57.8179,302.2963,0.00050121,7.696e-05,0.0,0 STARLINK-3778,1 52276U 22041R   23239.16517651  .00007696  00000-0  50121-3 0  9992,2 52276  53.2189 303.9648 0001549  57.8179 302.2963 15.08831835 75864,6917.905,95.438,540.842,538.699,0.0
52276.0,STARLINK-3778,PAYLOAD,2023-08-27 08:44:00,15.08836924,0.0001664,53.2188,303.0704,104.567,255.5506,0.00042044,6.409e-05,0.0,0 STARLINK-3778,1 52276U 22041R   23239.36389382  .00006409  00000-0  42044-3 0  9998,2 52276  53.2188 303.0704 0001664 104.5670 255.5506 15.08836924 74676,6917.89,95.438,540.906,538.604,0.0
52276.0,STARLINK-3778,PAYLOAD,2023-08-27 13:30:09,15.08843669,0.0001376,53.218,302.1777,90.3439,269.7711,0.00041826,6.376e-05,0.0,0 STARLINK-3778,1 52276U 22041R   23239.56260944  .00006376  00000-0  41826-3 0  9992,2 52276  53.2180 302.1777 0001376  90.3439 269.7711 15.08843669 75921,6917.869,95.437,540.686,538.782,0.0
